HORIZONS-3E             
1 43633U 18074B   26165.65084600 -.00000024  00000+0  00000+0 0  9993
2 43633   0.0187 163.9480 0000966 106.2603  36.0409  1.00270601 28310
AEHF-4 (USA 288)        
1 43651U 18079A   26166.17419207 -.00000272  00000+0  00000+0 0  9996
2 43651   1.4314   3.8080 0060411 356.1706 258.6649  1.00273117 28274
BEIDOU-3 G1             
1 43683U 18085A   26166.33235550 -.00000108  00000+0  00000+0 0  9991
2 43683   2.8625  97.4310 0008073 349.0370  96.7604  1.00270409 28046
GSAT-29                 
1 43698U 18089A   26166.01786565  .00000090  00000+0  00000+0 0  9992
2 43698   0.0615 100.3645 0003278 336.9241 247.5030  1.00273290 27768
ES'HAIL 2               
1 43700U 18090A   26166.26412792  .00000148  00000+0  00000+0 0  9997
2 43700   0.0185  14.7689 0001590 110.2506 259.4061  1.00269656 27657
GEO-KOMPSAT-2A          
1 43823U 18100A   26166.28440800 -.00000340  00000+0  00000+0 0  9993
2 43823   0.0512 123.0616 0001773 322.6671  48.4977  1.00271401 27615
GSAT-11                 
1 43824U 18100B   26166.19608485 -.00000073  00000+0  00000+0 0  9992
2 43824   0.0361 252.3116 0007619 195.2631 320.5010  1.00270966 27453
GSAT-7A                 
1 43864U 18105A   26165.98982687  .00000000  00000+0  00000+0 0  9995
2 43864   0.0195  30.9552 0001906  31.5959 259.8279  1.00270026 27429
COSMOS 2533             
1 43867U 18107A   26166.20302918 -.00000034  00000+0  00000+0 0  9997
2 43867   0.0476 100.3144 0000667  14.0704 292.1771  1.00270333 27428
TJS-3                   
1 43874U 18110A   26165.71044126 -.00000212  00000+0  00000+0 0  9996
2 43874   2.5384  80.5210 0002101  83.7025 142.8008  1.00270992 27399
ZHONGXING-2D            
1 43920U 19001A   26166.28475468 -.00000333  00000+0  00000+0 0  9992
2 43920   0.0363 248.4753 0001454  88.7850 158.8388  1.00272284 54067
HELLAS-SAT 4 & SGS-1    
1 44034U 19007A   26166.26672793  .00000156  00000+0  00000+0 0  9995
2 44034   0.0718 132.0987 0005109   9.1129 257.4039  1.00270864 27344
GSAT-31                 
1 44035U 19007B   26166.19718829  .00000129  00000+0  00000+0 0  9999
2 44035   0.0703 259.9074 0001749 101.6362  20.7568  1.00273342 26945
NUSANTARA SATU          
1 44048U 19009A   26166.28796135 -.00000231  00000+0  00000+0 0  9996
2 44048   0.0501 149.2515 0004190 326.8182  37.1818  1.00270641 26758
ZHONGXING-6C            
1 44067U 19012A   26166.28492801 -.00000332  00000+0  00000+0 0  9996
2 44067   0.1140  78.9480 0013609 331.3996  86.2155  1.00272080 26722
WGS 10 (USA 291)        
1 44071U 19014A   26165.93805941  .00000052  00000+0  00000+0 0  9995
2 44071   0.0184  29.3987 0000462 282.6295 349.2161  1.00270687 26594
TIANLIAN 2-01           
1 44076U 19017A   26165.98911010 -.00000102  00000+0  00000+0 0  9990
2 44076   0.5344  83.1137 0000636  29.6207 223.6389  1.00270516 26624
ARABSAT-6A              
1 44186U 19021A   26165.97992339  .00000158  00000+0  00000+0 0  9999
2 44186   0.0548  16.7521 0001483 351.0176 278.7827  1.00271287 26134
BEIDOU-3 IGSO-1         
1 44204U 19023A   26157.95428288 -.00000215  00000+0  00000+0 0  9993
2 44204  58.6799  37.7569 0025434 225.6649  92.8731  1.00294886  7105
BEIDOU-2 G8             
1 44231U 19027A   26166.28770135 -.00000244  00000+0  00000+0 0  9996
2 44231   1.6522  74.4944 0010233 282.0065 155.1913  1.00271346 26069
YAMAL 601               
1 44307U 19031A   26166.26872127  .00000124  00000+0  00000+0 0  9993
2 44307   0.0137  43.7437 0002311  43.6647 321.8911  1.00270180 25906
AT&T T-16               
1 44333U 19034A   26166.23902545 -.00000111  00000+0  00000+0 0  9997
2 44333   0.0162  51.8585 0000775 223.6696 333.1949  1.00268623 25617
EUTELSAT 7C             
1 44334U 19034B   26166.26040124  .00000052  00000+0  00000+0 0  9990
2 44334   0.0734 175.5544 0003061 250.1525 298.5955  1.00272253  6815
BEIDOU-3 IGSO-2         
1 44337U 19035A   26165.62361995 -.00000071  00000+0  00000+0 0  9997
2 44337  55.2456 158.8849 0039904 216.4592 231.8306  1.00267330 25649
COSMOS 2539             
1 44457U 19048A   26166.26144124  .00000084  00000+0  00000+0 0  9991
2 44457   0.0382  90.2771 0000407 355.0957 284.2823  1.00269138 25208
EDRS-C                  
1 44475U 19049A   26166.28726801 -.00000259  00000+0  00000+0 0  9997
2 44475   0.0156  57.6698 0000056  67.4350  24.3944  1.00269876 25197
INTELSAT 39 (IS-39)     
1 44476U 19049B   26166.20004830  .00000038  00000+0  00000+0 0  9995
2 44476   0.0009   6.3091 0000942 307.0150  84.1300  1.00270337 25103
AMOS-17                 
1 44479U 19050A   26166.26239457  .00000113  00000+0  00000+0 0  9995
2 44479   0.0175 329.6836 0001565 149.3179 255.9962  1.00272154 25165
AEHF-5 (USA 292)        
1 44481U 19051A   26166.05322593 -.00000253  00000+0  00000+0 0  9996
2 44481   1.4564 336.0492 0066374   0.1124  39.3824  1.00274313 25247
EUTELSAT 5 WEST B       
1 44624U 19067A   26166.25806123 -.00000038  00000+0  00000+0 0  9991
2 44624   0.0632   2.7536 0002873  79.5559 269.1611  1.00272084 24417
TJS-4                   
1 44637U 19070A   26165.99041010 -.00000164  00000+0  00000+0 0  9995
2 44637   0.0186  32.2026 0004408   8.4067 302.6938  1.00268509 24511
BEIDOU-3 IGSO-3         
1 44709U 19073A   26136.81046384 -.00000217  00000+0  00000+0 0  9995
2 44709  54.8566 281.2355 0042953 189.4588 170.3676  1.00246251 24144
