OBJECT_NAME,OBJECT_ID,EPOCH,MEAN_MOTION,ECCENTRICITY,INCLINATION,RA_OF_ASC_NODE,ARG_OF_PERICENTER,MEAN_ANOMALY,EPHEMERIS_TYPE,CLASSIFICATION_TYPE,NORAD_CAT_ID,ELEMENT_SET_NO,REV_AT_EPOCH,BSTAR,MEAN_MOTION_DOT,MEAN_MOTION_DDOT
HORIZONS-3E,2018-074B,2026-06-14T15:37:13.094400,1.00270601,.00009666,0.0187,163.9480,106.2603,36.0409,0,U,43633,999,2831,0,-.24E-6,0
AEHF-4 (USA 288),2018-079A,2026-06-15T04:10:50.194848,1.00273117,.00604118,1.4314,3.8080,356.1706,258.6649,0,U,43651,999,2827,0,-.272E-5,0
BEIDOU-3 G1,2018-085A,2026-06-15T07:58:35.515200,1.00270409,.00080739,2.8625,97.4310,349.0370,96.7604,0,U,43683,999,2804,0,-.108E-5,0
GSAT-29,2018-089A,2026-06-15T00:25:43.592160,1.00273290,.00032787,0.0615,100.3645,336.9241,247.5030,0,U,43698,999,2776,0,.9E-6,0
ES'HAIL 2,2018-090A,2026-06-15T06:20:20.652288,1.00269656,.00015904,0.0185,14.7689,110.2506,259.4061,0,U,43700,999,2765,0,.148E-5,0
GEO-KOMPSAT-2A,2018-100A,2026-06-15T06:49:32.851200,1.00271401,.00017738,0.0512,123.0616,322.6671,48.4977,0,U,43823,999,2761,0,-.34E-5,0
GSAT-11,2018-100B,2026-06-15T04:42:21.731040,1.00270966,.00076199,0.0361,252.3116,195.2631,320.5010,0,U,43824,999,2745,0,-.73E-6,0
GSAT-7A,2018-105A,2026-06-14T23:45:21.041568,1.00270026,.00019068,0.0195,30.9552,31.5959,259.8279,0,U,43864,999,2742,0,0,0
COSMOS 2533,2018-107A,2026-06-15T04:52:21.721152,1.00270333,.0000667,0.0476,100.3144,14.0704,292.1771,0,U,43867,999,2742,0,-.34E-6,0
TJS-3,2018-110A,2026-06-14T17:03:02.124864,1.00270992,.0002101,2.5384,80.5210,83.7025,142.8008,0,U,43874,999,2739,0,-.212E-5,0
ZHONGXING-2D,2019-001A,2026-06-15T06:50:02.804352,1.00272284,.00014545,0.0363,248.4753,88.7850,158.8388,0,U,43920,999,5406,0,-.333E-5,0
HELLAS-SAT 4 & SGS-1,2019-007A,2026-06-15T06:24:05.293152,1.00270864,.00051098,0.0718,132.0987,9.1129,257.4039,0,U,44034,999,2734,0,.156E-5,0
GSAT-31,2019-007B,2026-06-15T04:43:57.068256,1.00273342,.00017498,0.0703,259.9074,101.6362,20.7568,0,U,44035,999,2694,0,.129E-5,0
NUSANTARA SATU,2019-009A,2026-06-15T06:54:39.860640,1.00270641,.00041903,0.0501,149.2515,326.8182,37.1818,0,U,44048,999,2675,0,-.231E-5,0
ZHONGXING-6C,2019-012A,2026-06-15T06:50:17.780064,1.00272080,.00136097,0.1140,78.9480,331.3996,86.2155,0,U,44067,999,2672,0,-.332E-5,0
WGS 10 (USA 291),2019-014A,2026-06-14T22:30:48.333024,1.00270687,.0000462,0.0184,29.3987,282.6295,349.2161,0,U,44071,999,2659,0,.52E-6,0
TIANLIAN 2-01,2019-017A,2026-06-14T23:44:19.112640,1.00270516,.00006369,0.5344,83.1137,29.6207,223.6389,0,U,44076,999,2662,0,-.102E-5,0
ARABSAT-6A,2019-021A,2026-06-14T23:31:05.380896,1.00271287,.00014837,0.0548,16.7521,351.0176,278.7827,0,U,44186,999,2613,0,.158E-5,0
BEIDOU-3 IGSO-1,2019-023A,2026-06-06T22:54:10.040832,1.00294886,.00254341,58.6799,37.7569,225.6649,92.8731,0,U,44204,999,710,0,-.215E-5,0
BEIDOU-2 G8,2019-027A,2026-06-15T06:54:17.396640,1.00271346,.00102333,1.6522,74.4944,282.0065,155.1913,0,U,44231,999,2606,0,-.244E-5,0
YAMAL 601,2019-031A,2026-06-15T06:26:57.517728,1.00270180,.00023111,0.0137,43.7437,43.6647,321.8911,0,U,44307,999,2590,0,.124E-5,0
AT&T T-16,2019-034A,2026-06-15T05:44:11.798880,1.00268623,.00007758,0.0162,51.8585,223.6696,333.1949,0,U,44333,999,2561,0,-.111E-5,0
EUTELSAT 7C,2019-034B,2026-06-15T06:14:58.667136,1.00272253,.00030618,0.0734,175.5544,250.1525,298.5955,0,U,44334,999,681,0,.52E-6,0
BEIDOU-3 IGSO-2,2019-035A,2026-06-14T14:58:00.763680,1.00267330,.0039904,55.2456,158.8849,216.4592,231.8306,0,U,44337,999,2564,0,-.71E-6,0
COSMOS 2539,2019-048A,2026-06-15T06:16:28.523136,1.00269138,.00004073,0.0382,90.2771,355.0957,284.2823,0,U,44457,999,2520,0,.84E-6,0
EDRS-C,2019-049A,2026-06-15T06:53:39.956064,1.00269876,.00000561,0.0156,57.6698,67.4350,24.3944,0,U,44475,999,2519,0,-.259E-5,0
INTELSAT 39 (IS-39),2019-049B,2026-06-15T04:48:04.173120,1.00270337,.00009424,0.0009,6.3091,307.0150,84.1300,0,U,44476,999,2510,0,.38E-6,0
AMOS-17,2019-050A,2026-06-15T06:17:50.890848,1.00272154,.00015653,0.0175,329.6836,149.3179,255.9962,0,U,44479,999,2516,0,.113E-5,0
AEHF-5 (USA 292),2019-051A,2026-06-15T01:16:38.720352,1.00274313,.00663744,1.4564,336.0492,0.1124,39.3824,0,U,44481,999,2524,0,-.253E-5,0
EUTELSAT 5 WEST B,2019-067A,2026-06-15T06:11:36.490272,1.00272084,.00028739,0.0632,2.7536,79.5559,269.1611,0,U,44624,999,2441,0,-.38E-6,0
TJS-4,2019-070A,2026-06-14T23:46:11.432640,1.00268509,.00044089,0.0186,32.2026,8.4067,302.6938,0,U,44637,999,2451,0,-.164E-5,0
BEIDOU-3 IGSO-3,2019-073A,2026-05-16T19:27:04.075776,1.00246251,.0042953,54.8566,281.2355,189.4588,170.3676,0,U,44709,999,2414,0,-.217E-5,0
